[{"OBJECT_NAME":"GEOSCAN 5 (RS92S5)","OBJECT_ID":"2025-155R","EPOCH":"2026-03-09T22:01:07.273920","MEAN_MOTION":15.30265233,"ECCENTRICITY":0.00070849,"INCLINATION":97.4462,"RA_OF_ASC_NODE":37.7456,"ARG_OF_PERICENTER":154.5846,"MEAN_ANOMALY":205.5745,"EPHEMERIS_TYPE":0,"CLASSIFICATION_TYPE":"U","NORAD_CAT_ID":64891,"ELEMENT_SET_NO":999,"REV_AT_EPOCH":6562,"BSTAR":0.00068639307,"MEAN_MOTION_DOT":0.00020065,"MEAN_MOTION_DDOT":0},{"OBJECT_NAME":"STARLINK-35071","OBJECT_ID":"2025-195V","EPOCH":"2026-03-09T21:39:41.323968","MEAN_MOTION":15.30209042,"ECCENTRICITY":8.214e-5,"INCLINATION":53.1599,"RA_OF_ASC_NODE":257.3746,"ARG_OF_PERICENTER":78.6554,"MEAN_ANOMALY":281.4539,"EPHEMERIS_TYPE":0,"CLASSIFICATION_TYPE":"U","NORAD_CAT_ID":65477,"ELEMENT_SET_NO":999,"REV_AT_EPOCH":3000,"BSTAR":0.001273544,"MEAN_MOTION_DOT":0.00037561,"MEAN_MOTION_DDOT":0}]
